ONEWEB-0678             
1 56714U 23068E   24115.31316716 -.00000022  00000+0 -92463-4 0  9996
2 56714  87.9046  55.1479 0001657  85.8997 274.2323 13.15549219 46929
ONEWEB-0679             
1 56715U 23068F   24114.81335841  .00000123  00000+0  28924-3 0  9991
2 56715  87.9148  24.9158 0002399  63.8844 296.2534 13.16593788 48518
ONEWEB-0680             
1 56716U 23068G   24114.86748878  .00000099  00000+0  20836-3 0  9991
2 56716  87.9315  40.1201 0002754  78.9176 281.2268 13.21827014 48183
ONEWEB-0681             
1 56717U 23068H   24115.34689169  .00000106  00000+0  22624-3 0  9999
2 56717  87.9315  40.0130 0001531  38.9942 321.1302 13.21826307 48236
ONEWEB-0682             
1 56718U 23068J   24114.88296334  .00000080  00000+0  17892-3 0  9998
2 56718  87.9039  55.2767 0002505  73.6451 286.4955 13.15547729 46334
ONEWEB-0683             
1 56719U 23068K   24115.36070709  .00000237  00000+0  59617-3 0  9994
2 56719  87.9041  55.1546 0002233  77.6395 282.4985 13.15549573 47060
ONEWEB-0684             
1 56720U 23068L   24114.91228201  .00000123  00000+0  29172-3 0  9995
2 56720  87.9043  55.3199 0001996 128.4599 231.6711 13.15550374 46834
ONEWEB-0686             
1 56721U 23068M   24115.10704902  .00000275  00000+0  68676-3 0  9995
2 56721  87.9151  24.8938 0001916  85.9773 274.1577 13.16595841 49249
